CTC1_L_00152016-03
1 10062U 22190LR  26075.70031250  .00000000  00000+0  00000-0 0  9990
2 10062  75.0000 180.0000 0000000   0.0000   0.0000 14.06899812    11
CTC1_L_00152016-04
1 10063U 24506F   26075.70031250  .00000000  00000+0  00000-0 0  9994
2 10063  75.0000 180.0000 0000000   0.0000  90.0000 14.06899812    11
CTC1_L_00152017-01
1 10064U 22185QY  26075.70031250  .00000000  00000+0  00000-0 0  9996
2 10064  75.0000 192.0000 0000000   0.0000 192.0000 14.06899812    18
CTC1_L_00152017-02
1 10065U 24184DQ  26075.70031250  .00000000  00000+0  00000-0 0  9998
2 10065  75.0000 192.0000 0000000   0.0000 282.0000 14.06899812    19
CTC1_L_00152017-03
1 10066U 26840QM  26075.70031250  .00000000  00000+0  00000-0 0  9990
2 10066  75.0000 192.0000 0000000   0.0000  12.0000 14.06899812    11
CTC1_L_00152017-04
1 10067U 23570QP  26075.70031250  .00000000  00000+0  00000-0 0  9998
2 10067  75.0000 192.0000 0000000   0.0000 102.0000 14.06899812    12
CTC1_L_00152018-01
1 10068U 23343KB  26075.70031250  .00000000  00000+0  00000-0 0  9997
2 10068  75.0000 204.0000 0000000   0.0000 204.0000 14.06899812    10
CTC1_L_00152018-02
1 10069U 26272OS  26075.70031250  .00000000  00000+0  00000-0 0  9992
2 10069  75.0000 204.0000 0000000   0.0000 294.0000 14.06899812    10
CTC1_L_00152018-03
1 10070U 23139KO  26075.70031250  .00000000  00000+0  00000-0 0  9993
2 10070  75.0000 204.0000 0000000   0.0000  24.0000 14.06899812    13
CTC1_L_00152018-04
1 10071U 22583XO  26075.70031250  .00000000  00000+0  00000-0 0  9996
2 10071  75.0000 204.0000 0000000   0.0000 114.0000 14.06899812    14
CTC1_L_00152019-01
1 10072U 23011SW  26075.70031250  .00000000  00000+0  00000-0 0  9994
2 10072  75.0000 216.0000 0000000   0.0000 216.0000 14.06899812    11
CTC1_L_00152019-02
1 10073U 26251IQ  26075.70031250  .00000000  00000+0  00000-0 0  9994
2 10073  75.0000 216.0000 0000000   0.0000 306.0000 14.06899812    12
CTC1_L_00152019-03
1 10074U 25998JP  26075.70031250  .00000000  00000+0  00000-0 0  9992
2 10074  75.0000 216.0000 0000000   0.0000  36.0000 14.06899812    13
CTC1_L_00152019-04
1 10075U 25054BK  26075.70031250  .00000000  00000+0  00000-0 0  9996
2 10075  75.0000 216.0000 0000000   0.0000 126.0000 14.06899812    14
CTC1_L_00152020-01
1 10076U 22507OX  26075.70031250  .00000000  00000+0  00000-0 0  9997
2 10076  75.0000 228.0000 0000000   0.0000 228.0000 14.06899812    11
CTC1_L_00152020-02
1 10077U 22420UX  26075.70031250  .00000000  00000+0  00000-0 0  9992
2 10077  75.0000 228.0000 0000000   0.0000 318.0000 14.06899812    12
CTC1_L_00152020-03
1 10078U 23190SY  26075.70031250  .00000000  00000+0  00000-0 0  9998
2 10078  75.0000 228.0000 0000000   0.0000  48.0000 14.06899812    13
CTC1_L_00152020-04
1 10079U 26342KW  26075.70031250  .00000000  00000+0  00000-0 0  9991
2 10079  75.0000 228.0000 0000000   0.0000 138.0000 14.06899812    14
CTC1_L_00152021-01
1 10080U 24547NC  26075.70031250  .00000000  00000+0  00000-0 0  9998
2 10080  75.0000 240.0000 0000000   0.0000 240.0000 14.06899812    14
CTC1_L_00152021-02
1 10081U 24695NK  26075.70031250  .00000000  00000+0  00000-0 0  9993
2 10081  75.0000 240.0000 0000000   0.0000 330.0000 14.06899812    15
CTC1_L_00152021-03
1 10082U 24411HV  26075.70031250  .00000000  00000+0  00000-0 0  9990
2 10082  75.0000 240.0000 0000000   0.0000  60.0000 14.06899812    16
CTC1_L_00152021-04
1 10083U 25977CU  26075.70031250  .00000000  00000+0  00000-0 0  9999
2 10083  75.0000 240.0000 0000000   0.0000 150.0000 14.06899812    17
CTC1_L_00152022-01
1 10084U 25391NY  26075.70031250  .00000000  00000+0  00000-0 0  9990
2 10084  75.0000 252.0000 0000000   0.0000 252.0000 14.06899812    14
CTC1_L_00152022-02
1 10085U 23327LM  26075.70031250  .00000000  00000+0  00000-0 0  9998
2 10085  75.0000 252.0000 0000000   0.0000 342.0000 14.06899812    15
CTC1_L_00152022-03
1 10086U 24415ZX  26075.70031250  .00000000  00000+0  00000-0 0  9998
2 10086  75.0000 252.0000 0000000   0.0000  72.0000 14.06899812    16
CTC1_L_00152022-04
1 10087U 23432CE  26075.70031250  .00000000  00000+0  00000-0 0  9997
2 10087  75.0000 252.0000 0000000   0.0000 162.0000 14.06899812    17
CTC1_L_00152023-01
1 10088U 22331Y   26075.70031250  .00000000  00000+0  00000-0 0  9995
2 10088  75.0000 264.0000 0000000   0.0000 264.0000 14.06899812    14
CTC1_L_00152023-02
1 10089U 26044ZC  26075.70031250  .00000000  00000+0  00000-0 0  9991
2 10089  75.0000 264.0000 0000000   0.0000 354.0000 14.06899812    15
CTC1_L_00152023-03
1 10090U 22308PC  26075.70031250  .00000000  00000+0  00000-0 0  9992
2 10090  75.0000 264.0000 0000000   0.0000  84.0000 14.06899812    17
CTC1_L_00152023-04
1 10091U 26534VT  26075.70031250  .00000000  00000+0  00000-0 0  9998
2 10091  75.0000 264.0000 0000000   0.0000 174.0000 14.06899812    18
CTC1_L_00152024-01
1 10092U 26917GR  26075.70031250  .00000000  00000+0  00000-0 0  9994
2 10092  75.0000 276.0000 0000000   0.0000 276.0000 14.06899812    15
CTC1_L_00152024-02
1 10093U 23393MQ  26075.70031250  .00000000  00000+0  00000-0 0  9990
2 10093  75.0000 276.0000 0000000   0.0000   6.0000 14.06899812    17
CTC1_L_00152024-03
1 10094U 23886DI  26075.70031250  .00000000  00000+0  00000-0 0  9998
2 10094  75.0000 276.0000 0000000   0.0000  96.0000 14.06899812    17
CTC1_L_00152024-04
1 10095U 23082YX  26075.70031250  .00000000  00000+0  00000-0 0  9997
2 10095  75.0000 276.0000 0000000   0.0000 186.0000 14.06899812    18
CTC1_L_00152025-01
1 10096U 26267WW  26075.70031250  .00000000  00000+0  00000-0 0  9996
2 10096  75.0000 288.0000 0000000   0.0000 288.0000 14.06899812    15
CTC1_L_00152025-02
1 10097U 26620JY  26075.70031250  .00000000  00000+0  00000-0 0  9990
2 10097  75.0000 288.0000 0000000   0.0000  18.0000 14.06899812    17
CTC1_L_00152025-03
1 10098U 25772IC  26075.70031250  .00000000  00000+0  00000-0 0  9998
2 10098  75.0000 288.0000 0000000   0.0000 108.0000 14.06899812    18
CTC1_L_00152025-04
1 10099U 26513SU  26075.70031250  .00000000  00000+0  00000-0 0  9993
2 10099  75.0000 288.0000 0000000   0.0000 198.0000 14.06899812    18
CTC1_L_00152026-01
1 10100U 26486DM  26075.70031250  .00000000  00000+0  00000-0 0  9995
2 10100  75.0000 300.0000 0000000   0.0000 300.0000 14.06899812    11
CTC1_L_00152026-02
1 10101U 23819JB  26075.70031250  .00000000  00000+0  00000-0 0  9993
2 10101  75.0000 300.0000 0000000   0.0000  30.0000 14.06899812    12
CTC1_L_00152026-03
1 10102U 22871OE  26075.70031250  .00000000  00000+0  00000-0 0  9991
2 10102  75.0000 300.0000 0000000   0.0000 120.0000 14.06899812    13
CTC1_L_00152026-04
1 10103U 26572GA  26075.70031250  .00000000  00000+0  00000-0 0  9994
2 10103  75.0000 300.0000 0000000   0.0000 210.0000 14.06899812    14
CTC1_L_00152027-01
1 10104U 22938ZR  26075.70031250  .00000000  00000+0  00000-0 0  9997
2 10104  75.0000 312.0000 0000000   0.0000 312.0000 14.06899812    11
CTC1_L_00152027-02
1 10105U 25879BO  26075.70031250  .00000000  00000+0  00000-0 0  9995
2 10105  75.0000 312.0000 0000000   0.0000  42.0000 14.06899812    12
CTC1_L_00152027-03
1 10106U 24885OH  26075.70031250  .00000000  00000+0  00000-0 0  9992
2 10106  75.0000 312.0000 0000000   0.0000 132.0000 14.06899812    13
CTC1_L_00152027-04
1 10107U 24951UP  26075.70031250  .00000000  00000+0  00000-0 0  9997
2 10107  75.0000 312.0000 0000000   0.0000 222.0000 14.06899812    14
CTC1_L_00152028-01
1 10108U 23283DI  26075.70031250  .00000000  00000+0  00000-0 0  9995
2 10108  75.0000 324.0000 0000000   0.0000 324.0000 14.06899812    11
CTC1_L_00152028-02
1 10109U 24509RY  26075.70031250  .00000000  00000+0  00000-0 0  9998
2 10109  75.0000 324.0000 0000000   0.0000  54.0000 14.06899812    12
CTC1_L_00152028-03
1 10110U 23970UJ  26075.70031250  .00000000  00000+0  00000-0 0  9991
2 10110  75.0000 324.0000 0000000   0.0000 144.0000 14.06899812    14
CTC1_L_00152028-04
1 10111U 26812CH  26075.70031250  .00000000  00000+0  00000-0 0  9990
2 10111  75.0000 324.0000 0000000   0.0000 234.0000 14.06899812    15
CTC1_L_00152029-01
1 10112U 26522CT  26075.70031250  .00000000  00000+0  00000-0 0  9999
2 10112  75.0000 336.0000 0000000   0.0000 336.0000 14.06899812    12
CTC1_L_00152029-02
1 10113U 26009YL  26075.70031250  .00000000  00000+0  00000-0 0  9990
2 10113  75.0000 336.0000 0000000   0.0000  66.0000 14.06899812    13
CTC1_L_00152029-03
1 10114U 23319TS  26075.70031250  .00000000  00000+0  00000-0 0  9992
2 10114  75.0000 336.0000 0000000   0.0000 156.0000 14.06899812    14
CTC1_L_00152029-04
1 10115U 26647XI  26075.70031250  .00000000  00000+0  00000-0 0  9990
2 10115  75.0000 336.0000 0000000   0.0000 246.0000 14.06899812    15
CTC1_L_00152030-01
1 10116U 25385JV  26075.70031250  .00000000  00000+0  00000-0 0  9999
2 10116  75.0000 348.0000 0000000   0.0000 348.0000 14.06899812    12
CTC1_L_00152030-02
1 10117U 26139NK  26075.70031250  .00000000  00000+0  00000-0 0  9998
2 10117  75.0000 348.0000 0000000   0.0000  78.0000 14.06899812    13
CTC1_L_00152030-03
1 10118U 26045QH  26075.70031250  .00000000  00000+0  00000-0 0  9995
2 10118  75.0000 348.0000 0000000   0.0000 168.0000 14.06899812    14
CTC1_L_00152030-04
1 10119U 23698UI  26075.70031250  .00000000  00000+0  00000-0 0  9997
2 10119  75.0000 348.0000 0000000   0.0000 258.0000 14.06899812    15
